{
  "type": "FeatureCollection",
  "features": [
    {
      "type": "Feature",
      "properties": {
        "norad_id": 38067,
        "name": "COSMOS 2251 DEB",
        "group": "cosmos-2251-debris",
        "lat": -45.95127103664034,
        "lon": -100.11833164588224,
        "alt_km": 715.2741227379556,
        "timestamp": "2025-12-11T08:58:27.523517+00:00",
        "meta_object_name": "COSMOS 2251 DEB",
        "meta_object_id": "1993-036BRZ",
        "meta_epoch": "2025-12-10T12:23:14.076960",
        "meta_mean_motion": 14.61112696,
        "meta_eccentricity": 0.00693453,
        "meta_inclination": 74.0167,
        "meta_ra_of_asc_node": 278.7582,
        "meta_arg_of_pericenter": 67.0924,
        "meta_mean_anomaly": 55.1724,
        "meta_ephemeris_type": 0,
        "meta_classification_type": "U",
        "meta_norad_cat_id": 38067,
        "meta_element_set_no": 999,
        "meta_rev_at_epoch": 62523,
        "meta_bstar": 0.00060560442,
        "meta_mean_motion_dot": 3.051e-05,
        "meta_mean_motion_ddot": 0,
        "tle_line1": "1 38067U 93036BRZ 25344.51613515  .00003051  00000+0  60560-3 0  9998",
        "tle_line2": "2 38067  74.0167 278.7582 0069345  67.0924  55.1724 14.61112696625234"
      },
      "geometry": {
        "type": "Point",
        "coordinates": [
          -100.11833164588224,
          -45.95127103664034
        ]
      }
    },
    {
      "type": "Feature",
      "properties": {
        "norad_id": 38068,
        "name": "COSMOS 2251 DEB",
        "group": "cosmos-2251-debris",
        "lat": -19.034764929006183,
        "lon": 136.43239122900482,
        "alt_km": 792.6457889457997,
        "timestamp": "2025-12-11T08:58:27.523528+00:00",
        "meta_object_name": "COSMOS 2251 DEB",
        "meta_object_id": "1993-036BSA",
        "meta_epoch": "2025-11-26T00:12:22.263264",
        "meta_mean_motion": 14.35960004,
        "meta_eccentricity": 0.00240903,
        "meta_inclination": 74.0219,
        "meta_ra_of_asc_node": 338.9788,
        "meta_arg_of_pericenter": 72.1007,
        "meta_mean_anomaly": 288.2769,
        "meta_ephemeris_type": 0,
        "meta_classification_type": "U",
        "meta_norad_cat_id": 38068,
        "meta_element_set_no": 999,
        "meta_rev_at_epoch": 66406,
        "meta_bstar": 0.00028750999,
        "meta_mean_motion_dot": 8.11e-06,
        "meta_mean_motion_ddot": 0,
        "tle_line1": "1 38068U 93036BSA 25330.00859101  .00000811  00000+0  28751-3 0  9998",
        "tle_line2": "2 38068  74.0219 338.9788 0024090  72.1007 288.2769 14.35960004664064"
      },
      "geometry": {
        "type": "Point",
        "coordinates": [
          136.43239122900482,
          -19.034764929006183
        ]
      }
    },
    {
      "type": "Feature",
      "properties": {
        "norad_id": 38197,
        "name": "COSMOS 2251 DEB",
        "group": "cosmos-2251-debris",
        "lat": 3.0493187410147318,
        "lon": 0.6122260284162776,
        "alt_km": 702.1178768371683,
        "timestamp": "2025-12-11T08:58:27.523538+00:00",
        "meta_object_name": "COSMOS 2251 DEB",
        "meta_object_id": "1993-036BSM",
        "meta_epoch": "2025-12-08T19:03:08.420544",
        "meta_mean_motion": 14.73659772,
        "meta_eccentricity": 0.01272107,
        "meta_inclination": 73.9375,
        "meta_ra_of_asc_node": 4.7948,
        "meta_arg_of_pericenter": 243.2589,
        "meta_mean_anomaly": 115.552,
        "meta_ephemeris_type": 0,
        "meta_classification_type": "U",
        "meta_norad_cat_id": 38197,
        "meta_element_set_no": 999,
        "meta_rev_at_epoch": 85697,
        "meta_bstar": 0.0065046848,
        "meta_mean_motion_dot": 0.00048579,
        "meta_mean_motion_ddot": 0,
        "tle_line1": "1 38197U 93036BSM 25342.79384746  .00048579  00000+0  65047-2 0  9999",
        "tle_line2": "2 38197  73.9375   4.7948 0127210 243.2589 115.5520 14.73659772856977"
      },
      "geometry": {
        "type": "Point",
        "coordinates": [
          0.6122260284162776,
          3.0493187410147318
        ]
      }
    },
    {
      "type": "Feature",
      "properties": {
        "norad_id": 38199,
        "name": "COSMOS 2251 DEB",
        "group": "cosmos-2251-debris",
        "lat": -32.21482959473244,
        "lon": 53.98776593641224,
        "alt_km": 774.1442736808567,
        "timestamp": "2025-12-11T08:58:27.523549+00:00",
        "meta_object_name": "COSMOS 2251 DEB",
        "meta_object_id": "1993-036BSP",
        "meta_epoch": "2025-12-09T13:08:57.601824",
        "meta_mean_motion": 13.64788419,
        "meta_eccentricity": 0.0369499,
        "meta_inclination": 73.956,
        "meta_ra_of_asc_node": 67.4327,
        "meta_arg_of_pericenter": 354.5631,
        "meta_mean_anomaly": 5.1515,
        "meta_ephemeris_type": 0,
        "meta_classification_type": "U",
        "meta_norad_cat_id": 38199,
        "meta_element_set_no": 999,
        "meta_rev_at_epoch": 60978,
        "meta_bstar": 0.00073909,
        "meta_mean_motion_dot": 9.26e-06,
        "meta_mean_motion_ddot": 0,
        "tle_line1": "1 38199U 93036BSP 25343.54788891  .00000926  00000+0  73909-3 0  9995",
        "tle_line2": "2 38199  73.9560  67.4327 0369499 354.5631   5.1515 13.64788419609786"
      },
      "geometry": {
        "type": "Point",
        "coordinates": [
          53.98776593641224,
          -32.21482959473244
        ]
      }
    },
    {
      "type": "Feature",
      "properties": {
        "norad_id": 38208,
        "name": "COSMOS 2251 DEB",
        "group": "cosmos-2251-debris",
        "lat": -72.49656872111333,
        "lon": -32.9367589231831,
        "alt_km": 624.5861930717338,
        "timestamp": "2025-12-11T08:58:27.523559+00:00",
        "meta_object_name": "COSMOS 2251 DEB",
        "meta_object_id": "1993-036BSY",
        "meta_epoch": "2025-12-09T13:47:05.669952",
        "meta_mean_motion": 14.8367688,
        "meta_eccentricity": 0.0002644,
        "meta_inclination": 74.0057,
        "meta_ra_of_asc_node": 85.1942,
        "meta_arg_of_pericenter": 169.4562,
        "meta_mean_anomaly": 205.1363,
        "meta_ephemeris_type": 0,
        "meta_classification_type": "U",
        "meta_norad_cat_id": 38208,
        "meta_element_set_no": 999,
        "meta_rev_at_epoch": 71112,
        "meta_bstar": 0.003526,
        "meta_mean_motion_dot": 0.00029227,
        "meta_mean_motion_ddot": 0,
        "tle_line1": "1 38208U 93036BSY 25343.57437118  .00029227  00000+0  35260-2 0  9994",
        "tle_line2": "2 38208  74.0057  85.1942 0002644 169.4562 205.1363 14.83676880711127"
      },
      "geometry": {
        "type": "Point",
        "coordinates": [
          -32.9367589231831,
          -72.49656872111333
        ]
      }
    },
    {
      "type": "Feature",
      "properties": {
        "norad_id": 38212,
        "name": "COSMOS 2251 DEB",
        "group": "cosmos-2251-debris",
        "lat": -60.4556368336552,
        "lon": -70.4212404315496,
        "alt_km": 651.9510618276754,
        "timestamp": "2025-12-11T08:58:27.523570+00:00",
        "meta_object_name": "COSMOS 2251 DEB",
        "meta_object_id": "1993-036BTC",
        "meta_epoch": "2025-12-08T13:15:26.464032",
        "meta_mean_motion": 14.77639869,
        "meta_eccentricity": 0.0092747,
        "meta_inclination": 74.0522,
        "meta_ra_of_asc_node": 84.8103,
        "meta_arg_of_pericenter": 153.0073,
        "meta_mean_anomaly": 207.5971,
        "meta_ephemeris_type": 0,
        "meta_classification_type": "U",
        "meta_norad_cat_id": 38212,
        "meta_element_set_no": 999,
        "meta_rev_at_epoch": 81248,
        "meta_bstar": 0.00080388,
        "meta_mean_motion_dot": 6.149e-05,
        "meta_mean_motion_ddot": 0,
        "tle_line1": "1 38212U 93036BTC 25342.55238963  .00006149  00000+0  80388-3 0  9993",
        "tle_line2": "2 38212  74.0522  84.8103 0092747 153.0073 207.5971 14.77639869812484"
      },
      "geometry": {
        "type": "Point",
        "coordinates": [
          -70.4212404315496,
          -60.4556368336552
        ]
      }
    },
    {
      "type": "Feature",
      "properties": {
        "norad_id": 38220,
        "name": "COSMOS 2251 DEB",
        "group": "cosmos-2251-debris",
        "lat": -40.30929926376028,
        "lon": 56.967911674248846,
        "alt_km": 595.8250394411934,
        "timestamp": "2025-12-11T08:58:27.523580+00:00",
        "meta_object_name": "COSMOS 2251 DEB",
        "meta_object_id": "1993-036BTL",
        "meta_epoch": "2025-12-10T12:15:11.867328",
        "meta_mean_motion": 14.92691661,
        "meta_eccentricity": 0.00043841,
        "meta_inclination": 74.0139,
        "meta_ra_of_asc_node": 72.7799,
        "meta_arg_of_pericenter": 56.4542,
        "meta_mean_anomaly": 303.7059,
        "meta_ephemeris_type": 0,
        "meta_classification_type": "U",
        "meta_norad_cat_id": 38220,
        "meta_element_set_no": 999,
        "meta_rev_at_epoch": 71337,
        "meta_bstar": 0.0048679198,
        "meta_mean_motion_dot": 0.00050565,
        "meta_mean_motion_ddot": 0,
        "tle_line1": "1 38220U 93036BTL 25344.51055402  .00050565  00000+0  48679-2 0  9992",
        "tle_line2": "2 38220  74.0139  72.7799 0004384  56.4542 303.7059 14.92691661713370"
      },
      "geometry": {
        "type": "Point",
        "coordinates": [
          56.967911674248846,
          -40.30929926376028
        ]
      }
    }
  ]
}